{"fetched_at":"2026-07-18T17:29:33.240Z","source":"https://celestrak.org/NORAD/elements/gp.php?GROUP=planet&FORMAT=JSON","constellation":"superdove","records":[{"OBJECT_NAME":"FLOCK 4BE-17","OBJECT_ID":"2024-149AA","EPOCH":"2026-07-18T03:29:23.303904","CLASSIFICATION_TYPE":"U","MEAN_MOTION":15.40625414,"ECCENTRICITY":0.00045669,"INCLINATION":97.3761,"RA_OF_ASC_NODE":282.7765,"ARG_OF_PERICENTER":139.3551,"MEAN_ANOMALY":220.8037,"EPHEMERIS_TYPE":0,"NORAD_CAT_ID":60492,"ELEMENT_SET_NO":999,"REV_AT_EPOCH":10702,"BSTAR":0.00021658876,"MEAN_MOTION_DOT":0.00008739,"MEAN_MOTION_DDOT":0},{"OBJECT_NAME":"FLOCK 4BE-22","OBJECT_ID":"2024-149AC","EPOCH":"2026-07-18T03:55:48.230688","CLASSIFICATION_TYPE":"U","MEAN_MOTION":15.42043725,"ECCENTRICITY":0.00048735,"INCLINATION":97.3726,"RA_OF_ASC_NODE":283.0367,"ARG_OF_PERICENTER":145.7284,"MEAN_ANOMALY":214.4279,"EPHEMERIS_TYPE":0,"NORAD_CAT_ID":60494,"ELEMENT_SET_NO":999,"REV_AT_EPOCH":10707,"BSTAR":0.00022226487,"MEAN_MOTION_DOT":0.00009405,"MEAN_MOTION_DDOT":0},{"OBJECT_NAME":"FLOCK 4BE-34","OBJECT_ID":"2024-149AD","EPOCH":"2026-07-18T04:21:11.669184","CLASSIFICATION_TYPE":"U","MEAN_MOTION":15.42006823,"ECCENTRICITY":0.00050757,"INCLINATION":97.3777,"RA_OF_ASC_NODE":283.8962,"ARG_OF_PERICENTER":153.1118,"MEAN_ANOMALY":207.0393,"EPHEMERIS_TYPE":0,"NORAD_CAT_ID":60495,"ELEMENT_SET_NO":999,"REV_AT_EPOCH":10710,"BSTAR":0.00021352135,"MEAN_MOTION_DOT":0.0000902,"MEAN_MOTION_DDOT":0},{"OBJECT_NAME":"FLOCK 4BE-32","OBJECT_ID":"2024-149AF","EPOCH":"2026-07-18T04:38:16.228032","CLASSIFICATION_TYPE":"U","MEAN_MOTION":15.43150411,"ECCENTRICITY":0.00051594,"INCLINATION":97.3712,"RA_OF_ASC_NODE":283.4767,"ARG_OF_PERICENTER":150.1202,"MEAN_ANOMALY":210.0342,"EPHEMERIS_TYPE":0,"NORAD_CAT_ID":60497,"ELEMENT_SET_NO":999,"REV_AT_EPOCH":10711,"BSTAR":0.00023685819,"MEAN_MOTION_DOT":0.00010409,"MEAN_MOTION_DDOT":0},{"OBJECT_NAME":"FLOCK 4BE-11","OBJECT_ID":"2024-149AK","EPOCH":"2026-07-18T04:07:17.516064","CLASSIFICATION_TYPE":"U","MEAN_MOTION":15.43941005,"ECCENTRICITY":0.00052238,"INCLINATION":97.369,"RA_OF_ASC_NODE":283.7144,"ARG_OF_PERICENTER":150.3075,"MEAN_ANOMALY":209.8471,"EPHEMERIS_TYPE":0,"NORAD_CAT_ID":60501,"ELEMENT_SET_NO":999,"REV_AT_EPOCH":10713,"BSTAR":0.00023084803,"MEAN_MOTION_DOT":0.00010418,"MEAN_MOTION_DDOT":0},{"OBJECT_NAME":"FLOCK 4BE-24","OBJECT_ID":"2024-149AP","EPOCH":"2026-07-18T05:16:29.271072","CLASSIFICATION_TYPE":"U","MEAN_MOTION":15.44175149,"ECCENTRICITY":0.00052402,"INCLINATION":97.3705,"RA_OF_ASC_NODE":284.0329,"ARG_OF_PERICENTER":160.7672,"MEAN_ANOMALY":199.3775,"EPHEMERIS_TYPE":0,"NORAD_CAT_ID":60505,"ELEMENT_SET_NO":999,"REV_AT_EPOCH":10715,"BSTAR":0.00025513117,"MEAN_MOTION_DOT":0.00011616,"MEAN_MOTION_DDOT":0},{"OBJECT_NAME":"FLOCK 4BE-29","OBJECT_ID":"2024-149AT","EPOCH":"2026-07-18T03:26:13.698240","CLASSIFICATION_TYPE":"U","MEAN_MOTION":15.45631927,"ECCENTRICITY":0.00037306,"INCLINATION":97.3803,"RA_OF_ASC_NODE":285.5095,"ARG_OF_PERICENTER":168.9385,"MEAN_ANOMALY":191.1947,"EPHEMERIS_TYPE":0,"NORAD_CAT_ID":60509,"ELEMENT_SET_NO":999,"REV_AT_EPOCH":10719,"BSTAR":0.00053483861,"MEAN_MOTION_DOT":0.00025729,"MEAN_MOTION_DDOT":0},{"OBJECT_NAME":"FLOCK 4BE-2","OBJECT_ID":"2024-149AV","EPOCH":"2026-07-16T19:13:20.797824","CLASSIFICATION_TYPE":"U","MEAN_MOTION":15.56038813,"ECCENTRICITY":0.00053637,"INCLINATION":97.3829,"RA_OF_ASC_NODE":286.014,"ARG_OF_PERICENTER":168.9366,"MEAN_ANOMALY":191.2008,"EPHEMERIS_TYPE":0,"NORAD_CAT_ID":60511,"ELEMENT_SET_NO":999,"REV_AT_EPOCH":10710,"BSTAR":0.00061822673,"MEAN_MOTION_DOT":0.00043143,"MEAN_MOTION_DDOT":0},{"OBJECT_NAME":"FLOCK 4BE-13","OBJECT_ID":"2024-149AW","EPOCH":"2026-07-18T04:03:09.554976","CLASSIFICATION_TYPE":"U","MEAN_MOTION":15.42665952,"ECCENTRICITY":0.0005287,"INCLINATION":97.3712,"RA_OF_ASC_NODE":283.9184,"ARG_OF_PERICENTER":147.3105,"MEAN_ANOMALY":212.8471,"EPHEMERIS_TYPE":0,"NORAD_CAT_ID":60512,"ELEMENT_SET_NO":999,"REV_AT_EPOCH":10714,"BSTAR":0.00018525293,"MEAN_MOTION_DOT":0.00007989,"MEAN_MOTION_DDOT":0},{"OBJECT_NAME":"FLOCK 4BE-27","OBJECT_ID":"2024-149AX","EPOCH":"2026-07-18T03:57:30.170592","CLASSIFICATION_TYPE":"U","MEAN_MOTION":15.3494834,"ECCENTRICITY":0.00043216,"INCLINATION":97.3817,"RA_OF_ASC_NODE":281.0406,"ARG_OF_PERICENTER":172.0596,"MEAN_ANOMALY":188.0716,"EPHEMERIS_TYPE":0,"NORAD_CAT_ID":60513,"ELEMENT_SET_NO":999,"REV_AT_EPOCH":10689,"BSTAR":0.00014806807,"MEAN_MOTION_DOT":0.00004939,"MEAN_MOTION_DDOT":0},{"OBJECT_NAME":"FLOCK 4BE-9","OBJECT_ID":"2024-149AY","EPOCH":"2026-07-18T04:32:12.190272","CLASSIFICATION_TYPE":"U","MEAN_MOTION":15.41680268,"ECCENTRICITY":0.00039418,"INCLINATION":97.3784,"RA_OF_ASC_NODE":283.7797,"ARG_OF_PERICENTER":162.4982,"MEAN_ANOMALY":197.6402,"EPHEMERIS_TYPE":0,"NORAD_CAT_ID":60514,"ELEMENT_SET_NO":999,"REV_AT_EPOCH":10709,"BSTAR":0.00030020288,"MEAN_MOTION_DOT":0.00012582,"MEAN_MOTION_DDOT":0},{"OBJECT_NAME":"FLOCK 4BE-6","OBJECT_ID":"2024-149BA","EPOCH":"2026-07-18T04:16:25.997088","CLASSIFICATION_TYPE":"U","MEAN_MOTION":15.40367618,"ECCENTRICITY":0.0004594,"INCLINATION":97.3782,"RA_OF_ASC_NODE":283.0666,"ARG_OF_PERICENTER":164.3162,"MEAN_ANOMALY":195.8227,"EPHEMERIS_TYPE":0,"NORAD_CAT_ID":60516,"ELEMENT_SET_NO":999,"REV_AT_EPOCH":10704,"BSTAR":0.00020070067,"MEAN_MOTION_DOT":0.00008022,"MEAN_MOTION_DDOT":0},{"OBJECT_NAME":"FLOCK 4BE-14","OBJECT_ID":"2024-149BB","EPOCH":"2026-07-18T03:10:06.740544","CLASSIFICATION_TYPE":"U","MEAN_MOTION":15.41913504,"ECCENTRICITY":0.00056061,"INCLINATION":97.3687,"RA_OF_ASC_NODE":283.1867,"ARG_OF_PERICENTER":167.328,"MEAN_ANOMALY":192.8109,"EPHEMERIS_TYPE":0,"NORAD_CAT_ID":60517,"ELEMENT_SET_NO":999,"REV_AT_EPOCH":10709,"BSTAR":0.00022782371,"MEAN_MOTION_DOT":0.00009602,"MEAN_MOTION_DDOT":0},{"OBJECT_NAME":"FLOCK 4BE-1","OBJECT_ID":"2024-149BC","EPOCH":"2026-07-18T04:19:17.212512","CLASSIFICATION_TYPE":"U","MEAN_MOTION":15.43576103,"ECCENTRICITY":0.0005289,"INCLINATION":97.3771,"RA_OF_ASC_NODE":284.6255,"ARG_OF_PERICENTER":166.5273,"MEAN_ANOMALY":193.6117,"EPHEMERIS_TYPE":0,"NORAD_CAT_ID":60518,"ELEMENT_SET_NO":999,"REV_AT_EPOCH":10715,"BSTAR":0.00022477962,"MEAN_MOTION_DOT":0.00010017,"MEAN_MOTION_DDOT":0},{"OBJECT_NAME":"FLOCK 4BE-28","OBJECT_ID":"2024-149BD","EPOCH":"2026-07-18T03:28:47.575776","CLASSIFICATION_TYPE":"U","MEAN_MOTION":15.46448306,"ECCENTRICITY":0.00054199,"INCLINATION":97.3739,"RA_OF_ASC_NODE":285.4169,"ARG_OF_PERICENTER":167.0879,"MEAN_ANOMALY":193.051,"EPHEMERIS_TYPE":0,"NORAD_CAT_ID":60519,"ELEMENT_SET_NO":999,"REV_AT_EPOCH":10722,"BSTAR":0.00052714979,"MEAN_MOTION_DOT":0.00026086,"MEAN_MOTION_DDOT":0},{"OBJECT_NAME":"FLOCK 4BE-5","OBJECT_ID":"2024-149CV","EPOCH":"2026-07-18T03:17:14.830080","CLASSIFICATION_TYPE":"U","MEAN_MOTION":15.41098734,"ECCENTRICITY":0.00042754,"INCLINATION":97.3835,"RA_OF_ASC_NODE":283.4524,"ARG_OF_PERICENTER":163.1816,"MEAN_ANOMALY":196.9573,"EPHEMERIS_TYPE":0,"NORAD_CAT_ID":60559,"ELEMENT_SET_NO":999,"REV_AT_EPOCH":10704,"BSTAR":0.0002201148,"MEAN_MOTION_DOT":0.00009023,"MEAN_MOTION_DDOT":0}]}
